satname,norad_id,inclination_deg,eccentricity,mean_motion_rev_per_day,perigee_km,apogee_km,l1,l2
STARLINK-1420,45695,53.0469,0.0006111,15.66332241,365.2865437844157,373.5333956908289,1 45695U 20035AQ  26143.84544822  .00043802  00000+0  41783-3 0  9994,2 45695  53.0469  15.8044 0006111  89.8046 270.3669 15.66332241331096
STARLINK-1422,45696,53.1576,0.0003638,15.33551934,462.73541750894674,467.71464772387844,1 45696U 20035AR  26143.76726862  .00025748  00000+0  79136-3 0  9994,2 45696  53.1576  60.2551 0003638 100.0076 260.1337 15.33551934330470
STARLINK-1351,45697,53.0448,0.0005467,15.64833432,370.0266100167137,377.4090881086786,1 45697U 20035AS  26143.85106296  .00038830  00000+0  39413-3 0  9998,2 45697  53.0448  16.0307 0005467 100.7957 259.3673 15.64833432331095
STARLINK-1400,45700,53.0441,0.0003934,15.62670335,377.2885341673418,382.6057947879535,1 45700U 20035AV  26143.85063854  .00077748  00000+0  84936-3 0  9996,2 45700  53.0441  18.4300 0003934  59.2188 300.9212 15.62670335331050
STARLINK-1403,45701,53.155,0.0002864,15.32512622,466.35785688521264,470.27950669974325,1 45701U 20035AW  26143.76987360  .00026025  00000+0  82626-3 0  9990,2 45701  53.1550  47.6770 0002864 111.6750 248.4556 15.32512622330649
STARLINK-1407,45703,53.0278,0.000375,15.71611738,351.7655324012294,356.81485279567914,1 45703U 20035AY  26143.73128088  .00054109  00000+0  41423-3 0  9997,2 45703  53.0278 306.5624 0003750 358.3446   1.7558 15.71611738332059
STARLINK-1411,45706,53.0337,0.0003045,15.82903942,320.1929752774513,324.27350075240247,1 45706U 20035BB  26143.91668980  .00199028  00000+0  89956-3 0  9993,2 45706  53.0337 328.5731 0003045 269.2293  27.7144 15.82903942  5833
STARLINK-1423,45710,53.0452,0.000704,15.67259987,361.99848323682454,371.4952797419628,1 45710U 20035BF  26143.82140749  .00043767  00000+0  40207-3 0  9990,2 45710  53.0452  15.4685 0007040  62.1591 298.0137 15.67259987331086
STARLINK-1433,45711,53.0446,0.0007181,15.66837933,363.1136877703166,372.80242949352487,1 45711U 20035BG  26143.86655325  .00042346  00000+0  39592-3 0  9993,2 45711  53.0446  13.8009 0007181  66.3623 293.8146 15.66837933331119
STARLINK-1434,45712,53.0523,0.0003473,15.32958313,464.6142825071902,469.3689088297424,1 45712U 20035BH  26143.88016095  .00033608  00000+0  10477-2 0  9992,2 45712  53.0523  29.9523 0003473  62.4586 297.6767 15.32958313330906
STARLINK-1465,45731,53.0439,0.0001343,15.6369861,376.0769208578022,377.8913463942954,1 45731U 20038B   26143.91668980  .00911455  00000+0  87165-2 0  9999,2 45731  53.0439 218.9076 0001343  79.4317 244.1112 15.63698610  5848
STARLINK-1471,45735,53.0445,0.0003161,15.52633996,406.89361704678504,411.184469741419,1 45735U 20038F   26143.72008050  .00019166  00000+0  31275-3 0  9998,2 45735  53.0445 141.4580 0003161  73.4811 286.6545 15.52633996329172
STARLINK-1480,45741,53.045,0.0004854,15.63144383,375.30105473923504,381.86047634602346,1 45741U 20038M   26143.57667575  .00053900  00000+0  58140-3 0  9995,2 45741  53.0450 214.1375 0004854 345.5648  14.5226 15.63144383328145
STARLINK-1500,45744,53.0343,0.0002213,15.38433677,449.2292743560711,452.2517355397604,1 45744U 20038Q   26143.85817102  .00015431  00000+0  41045-3 0  9995,2 45744  53.0343 199.0851 0002213  96.3075 263.8180 15.38433677328373
STARLINK-1504,45746,53.0197,0.0003686,15.57866033,391.33805173491146,396.3303489037871,1 45746U 20038S   26143.27310779  .00027427  00000+0  36652-3 0  9997,2 45746  53.0197 140.9931 0003686  53.2210 306.9139 15.57866033329128
STARLINK-1506,45747,53.0767,0.0003319,15.28004673,479.50096111528,484.05457253749864,1 45747U 20038T   26143.52607852  .00005306  00000+0  20419-3 0  9993,2 45747  53.0767 215.6632 0003319 117.7982 242.3354 15.28004673328128
STARLINK-1464,45751,53.0461,0.000373,15.53109001,405.12400619698474,410.18620710854793,1 45751U 20038X   26143.49567164  .00035860  00000+0  56762-3 0  9993,2 45751  53.0461 206.4159 0003730 354.1916   5.9049 15.53109001328243
STARLINK-1477,45754,53.0466,5.69e-05,15.18109476,511.1625502918987,511.94659719298943,1 45754U 20038AA  26143.51013554  .00015724  00000+0  77516-3 0  9995,2 45754  53.0466 231.8690 0000569 269.6051  90.4878 15.18109476327885
STARLINK-1478,45755,53.0449,0.0004427,15.66554841,365.78390229030083,371.7576144195482,1 45755U 20038AB  26143.84017322  .00039057  00000+0  37019-3 0  9998,2 45755  53.0449 191.0158 0004427  22.3287 337.7920 15.66554841328479
STARLINK-1493,45759,53.0466,0.0007186,15.62542805,375.45825216634785,385.17149920208067,1 45759U 20038AF  26143.89269141  .00056630  00000+0  62443-3 0  9990,2 45759  53.0466 200.0517 0007186 339.0167  21.0551 15.62542805328355
STARLINK-1494,45760,53.0392,0.0005761,15.96891983,279.2102694355626,286.88528653675803,1 45760U 20038AG  26143.91668980  .00297919  46807-4  68115-3 0  9998,2 45760  53.0392 131.9739 0005761  35.5026  27.1388 15.96891983  5978
STARLINK-1502,45764,53.0462,0.0006757,15.58941154,386.1466068310765,395.29404061835703,1 45764U 20038AL  26143.58965870  .00067676  00000+0  85440-3 0  9998,2 45764  53.0462 204.9404 0006757 310.3416  49.7005 15.58941154328274
STARLINK-1470,45772,53.0421,0.0003711,15.33965371,461.45623887707006,466.5344695103522,1 45772U 20038AU  26143.41019984  .00029928  00000+0  90554-3 0  9995,2 45772  53.0421 185.7958 0003711 346.4430  13.6471 15.33965371328526
STARLINK-1482,45773,53.1564,0.0004414,15.36489853,453.4819899431204,459.51560642575805,1 45773U 20038AV  26143.57527885  .00043129  00000+0  11975-2 0  9995,2 45773  53.1564 201.5283 0004414 340.2568  19.8264 15.36489853328335
STARLINK-1496,45780,53.0454,0.0007841,15.6020206,381.76831351203145,392.3775157001164,1 45780U 20038BC  26143.34688306  .00069496  00000+0  83570-3 0  9990,2 45780  53.0454 177.1063 0007841  23.5075 336.6294 15.60202060328620
STARLINK-1513,45786,53.1593,0.0001364,15.31686645,469.8456138226229,471.71399832732004,1 45786U 20038BJ  26143.43818441  .00000975  00000+0  43198-4 0  9991,2 45786  53.1593 203.5411 0001364  88.5394 271.5763 15.31686645328295
STARLINK-1522,46027,53.0632,0.0003199,15.12312584,526.9397637021029,531.3590455437807,1 46027U 20055A   26143.69805362  .00004836  00000+0  29289-3 0  9999,2 46027  53.0632 147.5122 0003199   6.5491 353.5542 15.12312584320227
STARLINK-1523,46028,53.1589,0.0001428,15.30190383,474.2651214222533,476.2224469742205,1 46028U 20055B   26143.83019138  .00000834  00000+0  40291-4 0  9995,2 46028  53.1589 137.6832 0001428  91.0058 269.1107 15.30190383320409
STARLINK-1526,46029,53.159,0.0001189,15.30194701,474.41602588155365,476.04575676610966,1 46029U 20055C   26143.69324578  .00001641  00000+0  67538-4 0  9997,2 46029  53.1590 138.3308 0001189  91.6175 268.4962 15.30194701320373
STARLINK-1555,46032,53.1591,0.0001335,15.30196016,474.31204086169146,476.1418890403338,1 46032U 20055F   26143.67744463  .00000675  00000+0  34920-4 0  9993,2 46032  53.1591 138.3872 0001335 103.7122 256.4028 15.30196016320375
STARLINK-1556,46033,53.1616,0.0001308,15.30192216,474.3418896480762,476.134732629469,1 46033U 20055G   26143.26869953  .00000866  00000+0  41361-4 0  9990,2 46033  53.1616 140.2993 0001308  79.7915 280.3233 15.30192216320284
STARLINK-1557,46034,53.1609,0.0001151,15.30191309,474.4521954915608,476.02984311160435,1 46034U 20055H   26143.27186313  .00001836  00000+0  74111-4 0  9991,2 46034  53.1609 140.2827 0001151  83.2310 276.8822 15.30191309320284
STARLINK-1558,46035,53.1604,0.0001103,15.30196766,474.468799779067,475.9806513757294,1 46035U 20055J   26143.27923204  .00001834  00000+0  74037-4 0  9995,2 46035  53.1604 140.2476 0001103  83.2369 276.8757 15.30196766320314
STARLINK-1560,46036,53.1615,0.0001277,15.30192266,474.3629858383556,476.11333785469105,1 46036U 20055K   26143.26554003  .00001978  00000+0  78916-4 0  9991,2 46036  53.1615 140.3205 0001277  83.7357 276.3789 15.30192266320313
STARLINK-1569,46039,53.1602,0.000126,15.3018831,474.3864471156912,476.11350063310783,1 46039U 20055N   26143.28239898  .00000597  00000+0  32304-4 0  9995,2 46039  53.1602 140.2265 0001260  94.8159 265.2986 15.30188310320302
STARLINK-1582,46043,53.1587,0.000134,15.31696038,469.83405466696877,471.6695568669147,1 46043U 20055S   26143.38021203  .00001836  00000+0  70935-4 0  9999,2 46043  53.1587 139.3416 0001340  99.6948 260.4205 15.31696038320329
STARLINK-1591,46045,53.1594,0.0001201,15.30219315,474.3343182601893,475.9804795748096,1 46045U 20055U   26143.38036176 -.00005177  00000+0 -16268-3 0  9998,2 46045  53.1594 139.7741 0001201  85.3102 274.8035 15.30219315320300
STARLINK-1524,46047,53.1606,0.0001499,15.31700888,469.7107018803472,471.763994409921,1 46047U 20055W   26143.67579064  .00001442  00000+0  58220-4 0  9994,2 46047  53.1606 125.2621 0001499 100.3193 259.7978 15.31700888320556
STARLINK-1527,46048,53.1602,0.0001491,15.31690604,469.74683261975224,471.789176092052,1 46048U 20055X   26143.67111965 -.00001559  00000+0 -38485-4 0  9999,2 46048  53.1602 125.2668 0001491  83.0412 277.0759 15.31690604320528
STARLINK-1540,46051,53.1616,0.0001394,15.31703761,469.77405201301826,471.6835157935693,1 46051U 20055AA  26143.65717476  .00002440  00000+0  90359-4 0  9996,2 46051  53.1616 125.5405 0001394  93.2262 266.8899 15.31703761320561
STARLINK-1541,46052,53.1589,0.0001939,15.78767312,332.63071062859217,335.233651056923,1 46052U 20055AB  26143.83922630  .00117510  00000+0  65020-3 0  9998,2 46052  53.1589 113.9187 0001939 107.4197 252.7037 15.78767312320706
STARLINK-1543,46053,53.1592,0.0001438,15.31699471,469.75670340889974,471.7264408862493,1 46053U 20055AC  26143.36818213  .00003544  00000+0  12592-3 0  9995,2 46053  53.1592 126.6939 0001438  92.9277 267.1889 15.31699471320511
STARLINK-1548,46054,53.1594,0.0001272,15.31706757,469.84867844259315,471.5910276260065,1 46054U 20055AD  26143.64317889  .00003451  00000+0  12291-3 0  9993,2 46054  53.1594 125.4880 0001272  96.5871 263.5275 15.31706757320551
